{
  "type": "FeatureCollection",
  "features": [
    {
      "type": "Feature",
      "properties": {
        "norad_id": 36724,
        "name": "FENGYUN 1C DEB",
        "group": "fengyun-1c-debris",
        "lat": -74.58235319535775,
        "lon": 172.16253195801298,
        "alt_km": 811.7606064402507,
        "timestamp": "2025-12-22T20:43:46.137178+00:00",
        "meta_object_name": "FENGYUN 1C DEB",
        "meta_object_id": "1999-025EAW",
        "meta_epoch": "2025-12-22T01:08:19.052736",
        "meta_mean_motion": 14.25358317,
        "meta_eccentricity": 0.01037225,
        "meta_inclination": 99.4676,
        "meta_ra_of_asc_node": 28.5169,
        "meta_arg_of_pericenter": 171.606,
        "meta_mean_anomaly": 218.6674,
        "meta_ephemeris_type": 0,
        "meta_classification_type": "U",
        "meta_norad_cat_id": 36724,
        "meta_element_set_no": 999,
        "meta_rev_at_epoch": 57605,
        "meta_bstar": 0.0017254927,
        "meta_mean_motion_dot": 4.254e-05,
        "meta_mean_motion_ddot": 0,
        "tle_line1": "1 36724U 99025EAW 25356.04744274  .00004254  00000+0  17255-2 0  9996",
        "tle_line2": "2 36724  99.4676  28.5169 0103722 171.6060 218.6674 14.25358317576058"
      },
      "geometry": {
        "type": "Point",
        "coordinates": [
          172.16253195801298,
          -74.58235319535775
        ]
      }
    },
    {
      "type": "Feature",
      "properties": {
        "norad_id": 36729,
        "name": "FENGYUN 1C DEB",
        "group": "fengyun-1c-debris",
        "lat": 55.37558367238063,
        "lon": 171.17176974721409,
        "alt_km": 860.5389408192777,
        "timestamp": "2025-12-22T20:43:46.137192+00:00",
        "meta_object_name": "FENGYUN 1C DEB",
        "meta_object_id": "1999-025EBB",
        "meta_epoch": "2025-12-16T04:05:17.827872",
        "meta_mean_motion": 14.10320494,
        "meta_eccentricity": 0.00453471,
        "meta_inclination": 98.708,
        "meta_ra_of_asc_node": 331.8661,
        "meta_arg_of_pericenter": 246.1932,
        "meta_mean_anomaly": 113.4481,
        "meta_ephemeris_type": 0,
        "meta_classification_type": "U",
        "meta_norad_cat_id": 36729,
        "meta_element_set_no": 999,
        "meta_rev_at_epoch": 87300,
        "meta_bstar": 0.00030652739,
        "meta_mean_motion_dot": 5.06e-06,
        "meta_mean_motion_ddot": 0,
        "tle_line1": "1 36729U 99025EBB 25350.17034523  .00000506  00000+0  30653-3 0  9992",
        "tle_line2": "2 36729  98.7080 331.8661 0045347 246.1932 113.4481 14.10320494873007"
      },
      "geometry": {
        "type": "Point",
        "coordinates": [
          171.17176974721409,
          55.37558367238063
        ]
      }
    },
    {
      "type": "Feature",
      "properties": {
        "norad_id": 36734,
        "name": "FENGYUN 1C DEB",
        "group": "fengyun-1c-debris",
        "lat": 80.89488682151055,
        "lon": -51.596738261277714,
        "alt_km": 802.3775555330349,
        "timestamp": "2025-12-22T20:43:46.137207+00:00",
        "meta_object_name": "FENGYUN 1C DEB",
        "meta_object_id": "1999-025EBG",
        "meta_epoch": "2025-12-20T14:24:43.327008",
        "meta_mean_motion": 14.25911964,
        "meta_eccentricity": 0.0036578,
        "meta_inclination": 99.0553,
        "meta_ra_of_asc_node": 41.7554,
        "meta_arg_of_pericenter": 197.3577,
        "meta_mean_anomaly": 162.6354,
        "meta_ephemeris_type": 0,
        "meta_classification_type": "U",
        "meta_norad_cat_id": 36734,
        "meta_element_set_no": 999,
        "meta_rev_at_epoch": 82846,
        "meta_bstar": 0.0010628,
        "meta_mean_motion_dot": 2.503e-05,
        "meta_mean_motion_ddot": 0,
        "tle_line1": "1 36734U 99025EBG 25354.60050147  .00002503  00000+0  10628-2 0  9998",
        "tle_line2": "2 36734  99.0553  41.7554 0036578 197.3577 162.6354 14.25911964828467"
      },
      "geometry": {
        "type": "Point",
        "coordinates": [
          -51.596738261277714,
          80.89488682151055
        ]
      }
    },
    {
      "type": "Feature",
      "properties": {
        "norad_id": 36736,
        "name": "FENGYUN 1C DEB",
        "group": "fengyun-1c-debris",
        "lat": 3.4037407497355794,
        "lon": -109.10516098194294,
        "alt_km": 790.5998242901314,
        "timestamp": "2025-12-22T20:43:46.137217+00:00",
        "meta_object_name": "FENGYUN 1C DEB",
        "meta_object_id": "1999-025EBJ",
        "meta_epoch": "2025-12-19T22:50:38.531904",
        "meta_mean_motion": 14.25518256,
        "meta_eccentricity": 0.0060743,
        "meta_inclination": 98.8062,
        "meta_ra_of_asc_node": 67.4431,
        "meta_arg_of_pericenter": 119.7313,
        "meta_mean_anomaly": 240.9929,
        "meta_ephemeris_type": 0,
        "meta_classification_type": "U",
        "meta_norad_cat_id": 36736,
        "meta_element_set_no": 999,
        "meta_rev_at_epoch": 88718,
        "meta_bstar": 0.0010514,
        "meta_mean_motion_dot": 2.49e-05,
        "meta_mean_motion_ddot": 0,
        "tle_line1": "1 36736U 99025EBJ 25353.95183486  .00002490  00000+0  10514-2 0  9999",
        "tle_line2": "2 36736  98.8062  67.4431 0060743 119.7313 240.9929 14.25518256887186"
      },
      "geometry": {
        "type": "Point",
        "coordinates": [
          -109.10516098194294,
          3.4037407497355794
        ]
      }
    },
    {
      "type": "Feature",
      "properties": {
        "norad_id": 36743,
        "name": "FENGYUN 1C DEB",
        "group": "fengyun-1c-debris",
        "lat": -22.16878841503873,
        "lon": 48.61630845176895,
        "alt_km": 766.2014408419336,
        "timestamp": "2025-12-22T20:43:46.137227+00:00",
        "meta_object_name": "FENGYUN 1C DEB",
        "meta_object_id": "1999-025EBR",
        "meta_epoch": "2025-12-15T20:48:16.336800",
        "meta_mean_motion": 14.29116099,
        "meta_eccentricity": 0.0047177,
        "meta_inclination": 98.6557,
        "meta_ra_of_asc_node": 38.1117,
        "meta_arg_of_pericenter": 3.5743,
        "meta_mean_anomaly": 356.5766,
        "meta_ephemeris_type": 0,
        "meta_classification_type": "U",
        "meta_norad_cat_id": 36743,
        "meta_element_set_no": 999,
        "meta_rev_at_epoch": 60782,
        "meta_bstar": 0.00095050245,
        "meta_mean_motion_dot": 2.395e-05,
        "meta_mean_motion_ddot": 0,
        "tle_line1": "1 36743U 99025EBR 25349.86685575  .00002395  00000+0  95050-3 0  9991",
        "tle_line2": "2 36743  98.6557  38.1117 0047177   3.5743 356.5766 14.29116099607827"
      },
      "geometry": {
        "type": "Point",
        "coordinates": [
          48.61630845176895,
          -22.16878841503873
        ]
      }
    },
    {
      "type": "Feature",
      "properties": {
        "norad_id": 36986,
        "name": "FENGYUN 1C DEB",
        "group": "fengyun-1c-debris",
        "lat": 51.60617088887851,
        "lon": -105.16042759282001,
        "alt_km": 833.8341595140164,
        "timestamp": "2025-12-22T20:43:46.137236+00:00",
        "meta_object_name": "FENGYUN 1C DEB",
        "meta_object_id": "1999-025EBS",
        "meta_epoch": "2025-12-20T22:17:23.796096",
        "meta_mean_motion": 14.14646349,
        "meta_eccentricity": 0.0088071,
        "meta_inclination": 99.1446,
        "meta_ra_of_asc_node": 61.1301,
        "meta_arg_of_pericenter": 219.0076,
        "meta_mean_anomaly": 140.4722,
        "meta_ephemeris_type": 0,
        "meta_classification_type": "U",
        "meta_norad_cat_id": 36986,
        "meta_element_set_no": 999,
        "meta_rev_at_epoch": 81860,
        "meta_bstar": 0.0013942,
        "meta_mean_motion_dot": 2.737e-05,
        "meta_mean_motion_ddot": 0,
        "tle_line1": "1 36986U 99025EBS 25354.92874764  .00002737  00000+0  13942-2 0  9992",
        "tle_line2": "2 36986  99.1446  61.1301 0088071 219.0076 140.4722 14.14646349818603"
      },
      "geometry": {
        "type": "Point",
        "coordinates": [
          -105.16042759282001,
          51.60617088887851
        ]
      }
    },
    {
      "type": "Feature",
      "properties": {
        "norad_id": 36987,
        "name": "FENGYUN 1C DEB",
        "group": "fengyun-1c-debris",
        "lat": 54.45773628300129,
        "lon": -137.09172604556622,
        "alt_km": 879.3683498571436,
        "timestamp": "2025-12-22T20:43:46.137246+00:00",
        "meta_object_name": "FENGYUN 1C DEB",
        "meta_object_id": "1999-025EBT",
        "meta_epoch": "2025-12-19T22:53:32.054208",
        "meta_mean_motion": 13.45891786,
        "meta_eccentricity": 0.0320403,
        "meta_inclination": 100.8195,
        "meta_ra_of_asc_node": 235.2948,
        "meta_arg_of_pericenter": 29.8332,
        "meta_mean_anomaly": 332.0644,
        "meta_ephemeris_type": 0,
        "meta_classification_type": "U",
        "meta_norad_cat_id": 36987,
        "meta_element_set_no": 999,
        "meta_rev_at_epoch": 60974,
        "meta_bstar": 0.0011449,
        "meta_mean_motion_dot": 8.81e-06,
        "meta_mean_motion_ddot": 0,
        "tle_line1": "1 36987U 99025EBT 25353.95384322  .00000881  00000+0  11449-2 0  9999",
        "tle_line2": "2 36987 100.8195 235.2948 0320403  29.8332 332.0644 13.45891786609741"
      },
      "geometry": {
        "type": "Point",
        "coordinates": [
          -137.09172604556622,
          54.45773628300129
        ]
      }
    }
  ]
}